[{"OBJECT_NAME":"STARLINK-34690","OBJECT_ID":"2025-152X","EPOCH":"2026-03-09T13:45:52.955712","MEAN_MOTION":15.0565091,"ECCENTRICITY":0.0002429,"INCLINATION":97.6023,"RA_OF_ASC_NODE":285.4597,"ARG_OF_PERICENTER":72.7737,"MEAN_ANOMALY":287.3755,"EPHEMERIS_TYPE":0,"CLASSIFICATION_TYPE":"U","NORAD_CAT_ID":64863,"ELEMENT_SET_NO":999,"REV_AT_EPOCH":3540,"BSTAR":0.00022893,"MEAN_MOTION_DOT":3.244e-5,"MEAN_MOTION_DDOT":0},{"OBJECT_NAME":"IRIDIUM 33 DEB","OBJECT_ID":"1997-051PF","EPOCH":"2026-03-08T20:08:48.628608","MEAN_MOTION":15.0410284,"ECCENTRICITY":0.00301759,"INCLINATION":86.2075,"RA_OF_ASC_NODE":10.7469,"ARG_OF_PERICENTER":217.121,"MEAN_ANOMALY":142.7938,"EPHEMERIS_TYPE":0,"CLASSIFICATION_TYPE":"U","NORAD_CAT_ID":35080,"ELEMENT_SET_NO":999,"REV_AT_EPOCH":70973,"BSTAR":0.01054144,"MEAN_MOTION_DOT":0.00150308,"MEAN_MOTION_DDOT":0}]
